[{"OBJECT_NAME":"STARLINK-5425","OBJECT_ID":"2022-175AK","EPOCH":"2026-03-09T07:32:51.777024","MEAN_MOTION":15.08841332,"ECCENTRICITY":0.00016654,"INCLINATION":53.2184,"RA_OF_ASC_NODE":30.748,"ARG_OF_PERICENTER":105.8223,"MEAN_ANOMALY":254.2953,"EPHEMERIS_TYPE":0,"CLASSIFICATION_TYPE":"U","NORAD_CAT_ID":54791,"ELEMENT_SET_NO":999,"REV_AT_EPOCH":18007,"BSTAR":-4.1597278e-5,"MEAN_MOTION_DOT":-9.5e-6,"MEAN_MOTION_DDOT":0},{"OBJECT_NAME":"COSMOS 2251 DEB","OBJECT_ID":"1993-036AXM","EPOCH":"2026-03-07T07:05:54.204864","MEAN_MOTION":15.02741186,"ECCENTRICITY":0.0082386,"INCLINATION":74.0334,"RA_OF_ASC_NODE":21.5856,"ARG_OF_PERICENTER":78.8649,"MEAN_ANOMALY":282.1788,"EPHEMERIS_TYPE":0,"CLASSIFICATION_TYPE":"U","NORAD_CAT_ID":36050,"ELEMENT_SET_NO":999,"REV_AT_EPOCH":68304,"BSTAR":0.00097016,"MEAN_MOTION_DOT":0.00013949,"MEAN_MOTION_DDOT":0}]
